[{"OBJECT_NAME":"STARLINK-34971","OBJECT_ID":"2025-179X","EPOCH":"2026-03-09T17:10:08.234112","MEAN_MOTION":15.0565359,"ECCENTRICITY":0.00010742,"INCLINATION":97.6028,"RA_OF_ASC_NODE":113.0124,"ARG_OF_PERICENTER":111.6129,"MEAN_ANOMALY":248.5213,"EPHEMERIS_TYPE":0,"CLASSIFICATION_TYPE":"U","NORAD_CAT_ID":65256,"ELEMENT_SET_NO":999,"REV_AT_EPOCH":3155,"BSTAR":0.00024395888,"MEAN_MOTION_DOT":3.461e-5,"MEAN_MOTION_DDOT":0},{"OBJECT_NAME":"FALCON 9 DEB","OBJECT_ID":"2021-041BG","EPOCH":"2026-03-09T15:47:07.516032","MEAN_MOTION":15.0585876,"ECCENTRICITY":0.00124165,"INCLINATION":53.0346,"RA_OF_ASC_NODE":200.9185,"ARG_OF_PERICENTER":159.6872,"MEAN_ANOMALY":200.4613,"EPHEMERIS_TYPE":0,"CLASSIFICATION_TYPE":"U","NORAD_CAT_ID":48607,"ELEMENT_SET_NO":999,"REV_AT_EPOCH":26415,"BSTAR":0.00013916149,"MEAN_MOTION_DOT":1.762e-5,"MEAN_MOTION_DDOT":0}]
